{"features":[{"geometry":{"coordinates":[17.1329683,48.2030771],"type":"Point"},"id":"raca-kaplnka-sv-urbana","properties":{"_umap_options":{"color":"Crimson"},"approach_mode":"park_and_walk","approach_notes":"Route to the mapped street-side parking and continue on foot. Do not use the nearby private track.","categories":["wayside-shrine","winegrowing","historical"],"change_type":"added","description":"Change: added\nStatus: needs_research\nDestination: 3/5\nRoad: 3/5\nMotorcycle access: unknown\nLegal confidence: unknown\nSurface: mixed\n\nA compact Rača winegrowing-history target. Parking suitability and current signs need field verification.\n\nSources:\nhttps://www.openstreetmap.org/node/5235526393\nhttps://www.openstreetmap.org/way/1511550407\nhttps://kriz.epocha.sk/kaplnky/bratislava/raca-kaplnka-sv-urbana-2016","destination_score":3,"id":"raca-kaplnka-sv-urbana","kind":"place","legal_confidence":"unknown","motorcycle_access":"unknown","name":"Kaplnka sv. Urbana","notes":"A compact Rača winegrowing-history target. Parking suitability and current signs need field verification.","road_score":3,"source_urls":["https://www.openstreetmap.org/node/5235526393","https://www.openstreetmap.org/way/1511550407","https://kriz.epocha.sk/kaplnky/bratislava/raca-kaplnka-sv-urbana-2016"],"status":"needs_research","surface":"mixed"},"type":"Feature"},{"geometry":{"coordinates":[17.1552691,48.2153075],"type":"Point"},"id":"raca-sv-florian","properties":{"_umap_options":{"color":"Crimson"},"approach_mode":"roadside","approach_notes":"Urban roadside target. Use only a legal nearby stopping place.","categories":["statue","memorial","historical"],"change_type":"added","description":"Change: added\nStatus: candidate\nDestination: 3/5\nRoad: 2/5\nMotorcycle access: likely\nLegal confidence: inferred\nSurface: paved\n\nSmall historic object that pairs naturally with the two other Rača discoveries.\n\nSources:\nhttps://www.openstreetmap.org/way/972358019\nhttps://kriz.epocha.sk/sochy-svatych/sochy-svatych/sochy-svatych-bratislava/raca-sv-florian-1721","destination_score":3,"id":"raca-sv-florian","kind":"place","legal_confidence":"inferred","motorcycle_access":"likely","name":"Socha sv. Floriána","notes":"Small historic object that pairs naturally with the two other Rača discoveries.","road_score":2,"source_urls":["https://www.openstreetmap.org/way/972358019","https://kriz.epocha.sk/sochy-svatych/sochy-svatych/sochy-svatych-bratislava/raca-sv-florian-1721"],"status":"candidate","surface":"paved"},"type":"Feature"},{"geometry":{"coordinates":[17.1607366,48.2090396],"type":"Point"},"id":"raca-v-koridor-stela","properties":{"_umap_options":{"color":"Crimson"},"approach_mode":"roadside","approach_notes":"The memorial is beside mapped residential and service roads. Confirm a legal stopping place on arrival.","categories":["memorial","railway","oddity"],"change_type":"added","description":"Change: added\nStatus: candidate\nDestination: 2/5\nRoad: 2/5\nMotorcycle access: likely\nLegal confidence: inferred\nSurface: paved\n\nVery minor infrastructure oddity; useful as a quick urban detour rather than a destination ride.\n\nSources:\nhttps://www.openstreetmap.org/node/12919623968","destination_score":2,"id":"raca-v-koridor-stela","kind":"place","legal_confidence":"inferred","motorcycle_access":"likely","name":"Začatie stavby V. koridoru","notes":"Very minor infrastructure oddity; useful as a quick urban detour rather than a destination ride.","road_score":2,"source_urls":["https://www.openstreetmap.org/node/12919623968"],"status":"candidate","surface":"paved"},"type":"Feature"},{"geometry":{"coordinates":[17.1965697,48.261147],"type":"Point"},"id":"svaty-jur-biely-kamen","properties":{"_umap_options":{"color":"Crimson"},"approach_mode":"park_and_walk","approach_notes":"Leave the motorcycle at the mapped public asphalt parking in Svätý Jur and walk to the ruins. Do not route a motorcycle onto forest paths.","categories":["castle-ruins","historical","forest"],"change_type":"added","description":"Change: added\nStatus: shortlist\nDestination: 4/5\nRoad: 3/5\nMotorcycle access: no\nLegal confidence: inferred\nSurface: mixed\n\nThe largest destination in this batch, retained as a park-and-walk stop rather than a motorcycle-access target.\n\nSources:\nhttps://www.openstreetmap.org/way/150644741\nhttps://www.openstreetmap.org/way/499453143\nhttps://www.hradbielykamen.sk/\nhttps://www.wikidata.org/wiki/Q3502157","destination_score":4,"id":"svaty-jur-biely-kamen","kind":"place","legal_confidence":"inferred","motorcycle_access":"no","name":"Biely Kameň","notes":"The largest destination in this batch, retained as a park-and-walk stop rather than a motorcycle-access target.","road_score":3,"source_urls":["https://www.openstreetmap.org/way/150644741","https://www.openstreetmap.org/way/499453143","https://www.hradbielykamen.sk/","https://www.wikidata.org/wiki/Q3502157"],"status":"shortlist","surface":"mixed"},"type":"Feature"},{"geometry":{"coordinates":[17.227087,48.2542496],"type":"Point"},"id":"svaty-jur-ray-wallace-allen-memorial","properties":{"_umap_options":{"color":"Crimson"},"approach_mode":"park_and_walk","approach_notes":"Park at the mapped parking area near Panónska and walk roughly 100 m east beside the railway. Verify parking signs.","categories":["war-memorial","aviation","historical"],"change_type":"added","description":"Change: added\nStatus: shortlist\nDestination: 4/5\nRoad: 3/5\nMotorcycle access: no\nLegal confidence: inferred\nSurface: mixed\n\nStrong obscure-story target. The object itself is reached on foot from the approach parking.\n\nSources:\nhttps://www.openstreetmap.org/node/895526495\nhttps://www.openstreetmap.org/way/184958865\nhttps://pam.epocha.sk/pamatniky-zahorie/male-karpaty/ray-wallace-allen-1944-svaty-jur\nhttps://www.vets.cz/vpm/14828-pomnik-ray-wallace-allen/","destination_score":4,"id":"svaty-jur-ray-wallace-allen-memorial","kind":"place","legal_confidence":"inferred","motorcycle_access":"no","name":"Pamätník Ray Wallace Allen","notes":"Strong obscure-story target. The object itself is reached on foot from the approach parking.","road_score":3,"source_urls":["https://www.openstreetmap.org/node/895526495","https://www.openstreetmap.org/way/184958865","https://pam.epocha.sk/pamatniky-zahorie/male-karpaty/ray-wallace-allen-1944-svaty-jur","https://www.vets.cz/vpm/14828-pomnik-ray-wallace-allen/"],"status":"shortlist","surface":"mixed"},"type":"Feature"},{"geometry":{"coordinates":[17.2167619,48.2533749],"type":"Point"},"id":"svaty-jur-segnerovska-hrobka","properties":{"_umap_options":{"color":"Crimson"},"approach_mode":"park_and_walk","approach_notes":"Park at the mapped cemetery parking and enter on foot. Respect cemetery opening hours and rules.","categories":["tomb","cemetery","historical"],"change_type":"added","description":"Change: added\nStatus: candidate\nDestination: 3/5\nRoad: 2/5\nMotorcycle access: no\nLegal confidence: inferred\nSurface: paved\n\nCompact town stop that can be combined with the Allen memorial and vineyard tower.\n\nSources:\nhttps://www.openstreetmap.org/way/1388107009\nhttps://www.openstreetmap.org/node/8445663234\nhttps://www.pamiatky.sk/evidencie-a-registre/register-po/detail-po?code=PO&detail_id=81b858fd-80e2-463f-bf58-aadf3e151187","destination_score":3,"id":"svaty-jur-segnerovska-hrobka","kind":"place","legal_confidence":"inferred","motorcycle_access":"no","name":"Ségnerovská hrobka","notes":"Compact town stop that can be combined with the Allen memorial and vineyard tower.","road_score":2,"source_urls":["https://www.openstreetmap.org/way/1388107009","https://www.openstreetmap.org/node/8445663234","https://www.pamiatky.sk/evidencie-a-registre/register-po/detail-po?code=PO&detail_id=81b858fd-80e2-463f-bf58-aadf3e151187"],"status":"candidate","surface":"paved"},"type":"Feature"},{"geometry":{"coordinates":[17.204462,48.2511292],"type":"Point"},"id":"svaty-jur-vinohradnicka-rozhladna","properties":{"_umap_options":{"color":"Crimson"},"approach_mode":"park_and_walk","approach_notes":"Use the mapped parking area east of the vineyards and walk to the tower. Verify parking restrictions and the current foot route.","categories":["viewpoint","observation-tower","winegrowing"],"change_type":"added","description":"Change: added\nStatus: needs_research\nDestination: 3/5\nRoad: 3/5\nMotorcycle access: no\nLegal confidence: unknown\nSurface: mixed\n\nPromising small viewpoint, but the approach and parking need field confirmation.\n\nSources:\nhttps://www.openstreetmap.org/way/1324660373\nhttps://www.openstreetmap.org/node/895526464","destination_score":3,"id":"svaty-jur-vinohradnicka-rozhladna","kind":"place","legal_confidence":"unknown","motorcycle_access":"no","name":"Rozhľadňa nad vinohradníckym skanzenom","notes":"Promising small viewpoint, but the approach and parking need field confirmation.","road_score":3,"source_urls":["https://www.openstreetmap.org/way/1324660373","https://www.openstreetmap.org/node/895526464"],"status":"needs_research","surface":"mixed"},"type":"Feature"}],"name":"Latest discovery review","type":"FeatureCollection"}
