{"features":[{"geometry":{"coordinates":[17.2894132,48.1995891],"type":"Point"},"id":"bernolakovo-stlp-hanby","properties":{"approach_mode":"roadside","approach_notes":"Village-centre roadside target; confirm legal parking locally.","categories":["pillory","historical","oddity"],"destination_score":3,"id":"bernolakovo-stlp-hanby","kind":"place","legal_confidence":"inferred","motorcycle_access":"likely","name":"Stĺp hanby, Bernolákovo","notes":"Small peculiar first stop rather than a major destination.","road_score":2,"source_urls":["https://www.openstreetmap.org/node/54780117","https://www.wikidata.org/wiki/Q112086124","https://pamiatky.net/pamiatky/ostatne/bernolakovo-stlp-hanby/"],"status":"shortlist","surface":"paved"},"type":"Feature"},{"geometry":{"coordinates":[17.262833,48.326527],"type":"Point"},"id":"kucisdorfska-priehrada","properties":{"approach_mode":"park_and_walk","approach_notes":"Route only to mapped parking west of the reservoir.","categories":["reservoir","dam","waterworks"],"destination_score":3,"id":"kucisdorfska-priehrada","kind":"place","legal_confidence":"inferred","motorcycle_access":"likely","name":"Kučišdorfská priehrada","notes":"Short waterside stop that positions the ride for the northern vineyard and forest edge.","road_score":4,"source_urls":["https://www.openstreetmap.org/way/4345701","https://www.openstreetmap.org/way/1395834676","https://www.wikidata.org/wiki/Q63677250","https://sk.wikipedia.org/wiki/Vodná_nádrž_Kučišdorf"],"status":"shortlist","surface":"unknown"},"type":"Feature"},{"geometry":{"coordinates":[17.3362152,48.3231324],"type":"Point"},"id":"modra-stur-injury-memorial","properties":{"approach_mode":"park_and_walk","approach_notes":"Park at the mapped parking area and walk; a nearby asphalt service way is tagged motor_vehicle=no.","categories":["memorial","historical","oddity"],"destination_score":4,"id":"modra-stur-injury-memorial","kind":"place","legal_confidence":"inferred","motorcycle_access":"no","name":"Miesto poranenia Ľudovíta Štúra","notes":"Strong small-story destination. Treat it as a short walk, not a motorcycle-access target.","road_score":4,"source_urls":["https://www.openstreetmap.org/node/624632668","https://www.openstreetmap.org/way/49218132","https://pam.epocha.sk/pamatniky-zahorie/male-karpaty/ludovit-stur-zranenie-modra"],"status":"shortlist","surface":"mixed"},"type":"Feature"},{"geometry":{"coordinates":[17.2602435,48.3036287],"type":"Point"},"id":"pezinok-vahadlova-studna","properties":{"approach_mode":"park_and_walk","approach_notes":"Route to mapped parking east of the well; inspect signs and walk the remaining section.","categories":["water-well","historical","minor-infrastructure"],"destination_score":3,"id":"pezinok-vahadlova-studna","kind":"place","legal_confidence":"unknown","motorcycle_access":"unknown","name":"Vahadlová studňa","notes":"Deliberately obscure discovery candidate. Verify physical condition and walking access in the field.","road_score":3,"source_urls":["https://www.openstreetmap.org/node/1572877872","https://www.openstreetmap.org/node/13314922992"],"status":"needs_research","surface":"unpaved"},"type":"Feature"},{"geometry":{"coordinates":[17.1329683,48.2030771],"type":"Point"},"id":"raca-kaplnka-sv-urbana","properties":{"approach_mode":"park_and_walk","approach_notes":"Route to the mapped street-side parking and continue on foot. Do not use the nearby private track.","categories":["wayside-shrine","winegrowing","historical"],"destination_score":3,"id":"raca-kaplnka-sv-urbana","kind":"place","legal_confidence":"unknown","motorcycle_access":"unknown","name":"Kaplnka sv. Urbana","notes":"A compact Rača winegrowing-history target. Parking suitability and current signs need field verification.","road_score":3,"source_urls":["https://www.openstreetmap.org/node/5235526393","https://www.openstreetmap.org/way/1511550407","https://kriz.epocha.sk/kaplnky/bratislava/raca-kaplnka-sv-urbana-2016"],"status":"needs_research","surface":"mixed"},"type":"Feature"},{"geometry":{"coordinates":[17.1552691,48.2153075],"type":"Point"},"id":"raca-sv-florian","properties":{"approach_mode":"roadside","approach_notes":"Urban roadside target. Use only a legal nearby stopping place.","categories":["statue","memorial","historical"],"destination_score":3,"id":"raca-sv-florian","kind":"place","legal_confidence":"inferred","motorcycle_access":"likely","name":"Socha sv. Floriána","notes":"Small historic object that pairs naturally with the two other Rača discoveries.","road_score":2,"source_urls":["https://www.openstreetmap.org/way/972358019","https://kriz.epocha.sk/sochy-svatych/sochy-svatych/sochy-svatych-bratislava/raca-sv-florian-1721"],"status":"candidate","surface":"paved"},"type":"Feature"},{"geometry":{"coordinates":[17.1607366,48.2090396],"type":"Point"},"id":"raca-v-koridor-stela","properties":{"approach_mode":"roadside","approach_notes":"The memorial is beside mapped residential and service roads. Confirm a legal stopping place on arrival.","categories":["memorial","railway","oddity"],"destination_score":2,"id":"raca-v-koridor-stela","kind":"place","legal_confidence":"inferred","motorcycle_access":"likely","name":"Začatie stavby V. koridoru","notes":"Very minor infrastructure oddity; useful as a quick urban detour rather than a destination ride.","road_score":2,"source_urls":["https://www.openstreetmap.org/node/12919623968"],"status":"candidate","surface":"paved"},"type":"Feature"},{"geometry":{"coordinates":[17.1965697,48.261147],"type":"Point"},"id":"svaty-jur-biely-kamen","properties":{"approach_mode":"park_and_walk","approach_notes":"Leave the motorcycle at the mapped public asphalt parking in Svätý Jur and walk to the ruins. Do not route a motorcycle onto forest paths.","categories":["castle-ruins","historical","forest"],"destination_score":4,"id":"svaty-jur-biely-kamen","kind":"place","legal_confidence":"inferred","motorcycle_access":"no","name":"Biely Kameň","notes":"The largest destination in this batch, retained as a park-and-walk stop rather than a motorcycle-access target.","road_score":3,"source_urls":["https://www.openstreetmap.org/way/150644741","https://www.openstreetmap.org/way/499453143","https://www.hradbielykamen.sk/","https://www.wikidata.org/wiki/Q3502157"],"status":"shortlist","surface":"mixed"},"type":"Feature"},{"geometry":{"coordinates":[17.227087,48.2542496],"type":"Point"},"id":"svaty-jur-ray-wallace-allen-memorial","properties":{"approach_mode":"park_and_walk","approach_notes":"Park at the mapped parking area near Panónska and walk roughly 100 m east beside the railway. Verify parking signs.","categories":["war-memorial","aviation","historical"],"destination_score":4,"id":"svaty-jur-ray-wallace-allen-memorial","kind":"place","legal_confidence":"inferred","motorcycle_access":"no","name":"Pamätník Ray Wallace Allen","notes":"Strong obscure-story target. The object itself is reached on foot from the approach parking.","road_score":3,"source_urls":["https://www.openstreetmap.org/node/895526495","https://www.openstreetmap.org/way/184958865","https://pam.epocha.sk/pamatniky-zahorie/male-karpaty/ray-wallace-allen-1944-svaty-jur","https://www.vets.cz/vpm/14828-pomnik-ray-wallace-allen/"],"status":"shortlist","surface":"mixed"},"type":"Feature"},{"geometry":{"coordinates":[17.2167619,48.2533749],"type":"Point"},"id":"svaty-jur-segnerovska-hrobka","properties":{"approach_mode":"park_and_walk","approach_notes":"Park at the mapped cemetery parking and enter on foot. Respect cemetery opening hours and rules.","categories":["tomb","cemetery","historical"],"destination_score":3,"id":"svaty-jur-segnerovska-hrobka","kind":"place","legal_confidence":"inferred","motorcycle_access":"no","name":"Ségnerovská hrobka","notes":"Compact town stop that can be combined with the Allen memorial and vineyard tower.","road_score":2,"source_urls":["https://www.openstreetmap.org/way/1388107009","https://www.openstreetmap.org/node/8445663234","https://www.pamiatky.sk/evidencie-a-registre/register-po/detail-po?code=PO&detail_id=81b858fd-80e2-463f-bf58-aadf3e151187"],"status":"candidate","surface":"paved"},"type":"Feature"},{"geometry":{"coordinates":[17.204462,48.2511292],"type":"Point"},"id":"svaty-jur-vinohradnicka-rozhladna","properties":{"approach_mode":"park_and_walk","approach_notes":"Use the mapped parking area east of the vineyards and walk to the tower. Verify parking restrictions and the current foot route.","categories":["viewpoint","observation-tower","winegrowing"],"destination_score":3,"id":"svaty-jur-vinohradnicka-rozhladna","kind":"place","legal_confidence":"unknown","motorcycle_access":"no","name":"Rozhľadňa nad vinohradníckym skanzenom","notes":"Promising small viewpoint, but the approach and parking need field confirmation.","road_score":3,"source_urls":["https://www.openstreetmap.org/way/1324660373","https://www.openstreetmap.org/node/895526464"],"status":"needs_research","surface":"mixed"},"type":"Feature"}],"type":"FeatureCollection"}
