{"features":[{"geometry":{"coordinates":[[17.239285,48.3208088],[17.2358899,48.325081],[17.2302018,48.3293413],[17.2244083,48.3355539],[17.2231561,48.3381419],[17.2226667,48.3414796],[17.2202053,48.344707],[17.2193175,48.3475298],[17.2197772,48.3493501],[17.2191899,48.3514005],[17.2114701,48.3487644],[17.2031121,48.348376],[17.1961378,48.3524084],[17.1893913,48.3503229],[17.1834382,48.3554901],[17.1753193,48.3563458],[17.1705533,48.3609289],[17.1629469,48.3617022]],"type":"LineString"},"id":"pezinska-baba-503","properties":{"categories":["paved","curves","mountain-pass","scenic"],"destination_score":1,"id":"pezinska-baba-503","kind":"road","legal_confidence":"inferred","motorcycle_access":"likely","name":"Pezinská Baba, road II/503","notes":"The road is the main riding payoff. Current legality and closures still require normal road-sign compliance.","road_score":5,"source_urls":["https://www.openstreetmap.org/way/31309339","https://www.openstreetmap.org/way/240640929","https://www.openstreetmap.org/way/240640930","https://www.openstreetmap.org/way/25520821","https://www.openstreetmap.org/way/25520822","https://www.openstreetmap.org/way/380106146"],"status":"shortlist","surface":"paved"},"type":"Feature"}],"type":"FeatureCollection"}
