{"features":[{"geometry":{"coordinates":[17.2894132,48.1995891],"type":"Point"},"id":"bernolakovo-stlp-hanby","properties":{"approach_mode":"roadside","approach_notes":"Village-centre roadside target; confirm legal parking locally.","categories":["pillory","historical","oddity"],"destination_score":3,"id":"bernolakovo-stlp-hanby","kind":"place","legal_confidence":"inferred","motorcycle_access":"likely","name":"Stĺp hanby, Bernolákovo","notes":"Small peculiar first stop rather than a major destination.","road_score":2,"source_urls":["https://www.openstreetmap.org/node/54780117","https://www.wikidata.org/wiki/Q112086124","https://pamiatky.net/pamiatky/ostatne/bernolakovo-stlp-hanby/"],"status":"shortlist","surface":"paved"},"type":"Feature"},{"geometry":{"coordinates":[17.262833,48.326527],"type":"Point"},"id":"kucisdorfska-priehrada","properties":{"approach_mode":"park_and_walk","approach_notes":"Route only to mapped parking west of the reservoir.","categories":["reservoir","dam","waterworks"],"destination_score":3,"id":"kucisdorfska-priehrada","kind":"place","legal_confidence":"inferred","motorcycle_access":"likely","name":"Kučišdorfská priehrada","notes":"Short waterside stop that positions the ride for the northern vineyard and forest edge.","road_score":4,"source_urls":["https://www.openstreetmap.org/way/4345701","https://www.openstreetmap.org/way/1395834676","https://www.wikidata.org/wiki/Q63677250","https://sk.wikipedia.org/wiki/Vodná_nádrž_Kučišdorf"],"status":"shortlist","surface":"unknown"},"type":"Feature"},{"geometry":{"coordinates":[17.3362152,48.3231324],"type":"Point"},"id":"modra-stur-injury-memorial","properties":{"approach_mode":"park_and_walk","approach_notes":"Park at the mapped parking area and walk; a nearby asphalt service way is tagged motor_vehicle=no.","categories":["memorial","historical","oddity"],"destination_score":4,"id":"modra-stur-injury-memorial","kind":"place","legal_confidence":"inferred","motorcycle_access":"no","name":"Miesto poranenia Ľudovíta Štúra","notes":"Strong small-story destination. Treat it as a short walk, not a motorcycle-access target.","road_score":4,"source_urls":["https://www.openstreetmap.org/node/624632668","https://www.openstreetmap.org/way/49218132","https://pam.epocha.sk/pamatniky-zahorie/male-karpaty/ludovit-stur-zranenie-modra"],"status":"shortlist","surface":"mixed"},"type":"Feature"},{"geometry":{"coordinates":[17.1965697,48.261147],"type":"Point"},"id":"svaty-jur-biely-kamen","properties":{"approach_mode":"park_and_walk","approach_notes":"Leave the motorcycle at the mapped public asphalt parking in Svätý Jur and walk to the ruins. Do not route a motorcycle onto forest paths.","categories":["castle-ruins","historical","forest"],"destination_score":4,"id":"svaty-jur-biely-kamen","kind":"place","legal_confidence":"inferred","motorcycle_access":"no","name":"Biely Kameň","notes":"The largest destination in this batch, retained as a park-and-walk stop rather than a motorcycle-access target.","road_score":3,"source_urls":["https://www.openstreetmap.org/way/150644741","https://www.openstreetmap.org/way/499453143","https://www.hradbielykamen.sk/","https://www.wikidata.org/wiki/Q3502157"],"status":"shortlist","surface":"mixed"},"type":"Feature"},{"geometry":{"coordinates":[17.227087,48.2542496],"type":"Point"},"id":"svaty-jur-ray-wallace-allen-memorial","properties":{"approach_mode":"park_and_walk","approach_notes":"Park at the mapped parking area near Panónska and walk roughly 100 m east beside the railway. Verify parking signs.","categories":["war-memorial","aviation","historical"],"destination_score":4,"id":"svaty-jur-ray-wallace-allen-memorial","kind":"place","legal_confidence":"inferred","motorcycle_access":"no","name":"Pamätník Ray Wallace Allen","notes":"Strong obscure-story target. The object itself is reached on foot from the approach parking.","road_score":3,"source_urls":["https://www.openstreetmap.org/node/895526495","https://www.openstreetmap.org/way/184958865","https://pam.epocha.sk/pamatniky-zahorie/male-karpaty/ray-wallace-allen-1944-svaty-jur","https://www.vets.cz/vpm/14828-pomnik-ray-wallace-allen/"],"status":"shortlist","surface":"mixed"},"type":"Feature"}],"type":"FeatureCollection"}
