{"date":"2026-09-11","features":[{"geometry":{"coordinates":[17.1077,48.1486],"type":"Point"},"id":"selection-start","properties":{"id":"selection-start","kind":"start","name":"Bratislava centre","ride_order":0},"type":"Feature"},{"geometry":{"coordinates":[17.2894132,48.1995891],"type":"Point"},"id":"bernolakovo-stlp-hanby","properties":{"approach_mode":"roadside","approach_notes":"Village-centre roadside target; confirm legal parking locally.","categories":["pillory","historical","oddity"],"destination_score":3,"id":"bernolakovo-stlp-hanby","kind":"place","legal_confidence":"inferred","motorcycle_access":"likely","name":"Stĺp hanby, Bernolákovo","notes":"Small peculiar first stop rather than a major destination.","ride_order":1,"road_score":2,"source_urls":["https://www.openstreetmap.org/node/54780117","https://www.wikidata.org/wiki/Q112086124","https://pamiatky.net/pamiatky/ostatne/bernolakovo-stlp-hanby/"],"status":"shortlist","surface":"paved"},"type":"Feature"},{"geometry":{"coordinates":[17.2602435,48.3036287],"type":"Point"},"id":"pezinok-vahadlova-studna","properties":{"approach_mode":"park_and_walk","approach_notes":"Route to mapped parking east of the well; inspect signs and walk the remaining section.","categories":["water-well","historical","minor-infrastructure"],"destination_score":3,"id":"pezinok-vahadlova-studna","kind":"place","legal_confidence":"unknown","motorcycle_access":"unknown","name":"Vahadlová studňa","notes":"Deliberately obscure discovery candidate. Verify physical condition and walking access in the field.","ride_order":2,"road_score":3,"source_urls":["https://www.openstreetmap.org/node/1572877872","https://www.openstreetmap.org/node/13314922992"],"status":"needs_research","surface":"unpaved"},"type":"Feature"},{"geometry":{"coordinates":[17.262833,48.326527],"type":"Point"},"id":"kucisdorfska-priehrada","properties":{"approach_mode":"park_and_walk","approach_notes":"Route only to mapped parking west of the reservoir.","categories":["reservoir","dam","waterworks"],"destination_score":3,"id":"kucisdorfska-priehrada","kind":"place","legal_confidence":"inferred","motorcycle_access":"likely","name":"Kučišdorfská priehrada","notes":"Short waterside stop that positions the ride for the northern vineyard and forest edge.","ride_order":3,"road_score":4,"source_urls":["https://www.openstreetmap.org/way/4345701","https://www.openstreetmap.org/way/1395834676","https://www.wikidata.org/wiki/Q63677250","https://sk.wikipedia.org/wiki/Vodná_nádrž_Kučišdorf"],"status":"shortlist","surface":"unknown"},"type":"Feature"},{"geometry":{"coordinates":[17.3362152,48.3231324],"type":"Point"},"id":"modra-stur-injury-memorial","properties":{"approach_mode":"park_and_walk","approach_notes":"Park at the mapped parking area and walk; a nearby asphalt service way is tagged motor_vehicle=no.","categories":["memorial","historical","oddity"],"destination_score":4,"id":"modra-stur-injury-memorial","kind":"place","legal_confidence":"inferred","motorcycle_access":"no","name":"Miesto poranenia Ľudovíta Štúra","notes":"Strong small-story destination. Treat it as a short walk, not a motorcycle-access target.","ride_order":4,"road_score":4,"source_urls":["https://www.openstreetmap.org/node/624632668","https://www.openstreetmap.org/way/49218132","https://pam.epocha.sk/pamatniky-zahorie/male-karpaty/ludovit-stur-zranenie-modra"],"status":"shortlist","surface":"mixed"},"type":"Feature"},{"geometry":{"coordinates":[[17.239285,48.3208088],[17.2358899,48.325081],[17.2302018,48.3293413],[17.2244083,48.3355539],[17.2231561,48.3381419],[17.2226667,48.3414796],[17.2202053,48.344707],[17.2193175,48.3475298],[17.2197772,48.3493501],[17.2191899,48.3514005],[17.2114701,48.3487644],[17.2031121,48.348376],[17.1961378,48.3524084],[17.1893913,48.3503229],[17.1834382,48.3554901],[17.1753193,48.3563458],[17.1705533,48.3609289],[17.1629469,48.3617022]],"type":"LineString"},"id":"pezinska-baba-503","properties":{"categories":["paved","curves","mountain-pass","scenic"],"destination_score":1,"id":"pezinska-baba-503","kind":"road","legal_confidence":"inferred","motorcycle_access":"likely","name":"Pezinská Baba, road II/503","notes":"The road is the main riding payoff. Current legality and closures still require normal road-sign compliance.","ride_order":5,"road_score":5,"source_urls":["https://www.openstreetmap.org/way/31309339","https://www.openstreetmap.org/way/240640929","https://www.openstreetmap.org/way/240640930","https://www.openstreetmap.org/way/25520821","https://www.openstreetmap.org/way/25520822","https://www.openstreetmap.org/way/380106146"],"status":"shortlist","surface":"paved"},"type":"Feature"}],"name":"Kučišdorf and Pezinská Baba loop","type":"FeatureCollection"}
